IRIDIUM 122             
1 42957U 17061C   26087.89924387 -.00000016  00000+0 -12845-4 0  9997
2 42957  86.3941  58.7418 0002044  88.4954 271.6476 14.34217990443274
